ONEWEB-0056             
1 45159U 20008AE  25166.08951567 -.00000379  00000+0 -11211-2 0  9993
2 45159  87.8820 109.4652 0002001  78.6297 281.5055 13.10371875260862
ONEWEB-0057             
1 45160U 20008AF  25166.24966393 -.00000558  00000+0 -16358-2 0  9992
2 45160  87.8825 109.4461 0001886  77.0206 283.1132 13.10371482260789
ONEWEB-0058             
1 45161U 20008AG  25165.77838572 -.00000164  00000+0 -50644-3 0  9997
2 45161  87.8814 109.5532 0002046  84.4480 275.6880 13.10370724260305
ONEWEB-0059             
1 45162U 20008AH  25165.77492971  .00000031  00000+0  51388-4 0  9995
2 45162  87.8817 109.5507 0002102  83.9938 276.1429 13.10369804260207
ONEWEB-0062             
1 45163U 20008AJ  25166.10607683 -.00000592  00000+0 -17329-2 0  9991
2 45163  87.8825 109.4648 0002416  82.6677 277.4725 13.10373674260861
ONEWEB-0065             
1 45164U 20008AK  25166.08531855 -.00000235  00000+0 -70815-3 0  9990
2 45164  87.8824 109.4915 0001928  70.4327 289.7008 13.10371400260542
ONEWEB-0066             
1 45424U 20020A   25165.85403625  .00000322  00000+0  87335-3 0  9990
2 45424  87.8843  94.2792 0001724  86.7764 273.3561 13.11420190254543
ONEWEB-0067             
1 45425U 20020B   25166.19666035 -.00000119  00000+0 -37147-3 0  9997
2 45425  87.8830  94.1275 0001780  79.7357 280.3972 13.11415274254649
